{
    "links": {
        "self": "http://www.neowsapp.com/rest/v1/neo/3394076?api_key=iIulBulltgU6a56xZRHN4H3l9WmuAYTsLGpBGhQ2"
    },
    "id": "3394076",
    "neo_reference_id": "3394076",
    "name": "(2007 VD138)",
    "designation": "2007 VD138",
    "nasa_jpl_url": "http://ssd.jpl.nasa.gov/sbdb.cgi?sstr=3394076",
    "absolute_magnitude_h": 24.5,
    "estimated_diameter": {
        "kilometers": {
            "estimated_diameter_min": 0.0334622374,
            "estimated_diameter_max": 0.0748238376
        },
        "meters": {
            "estimated_diameter_min": 33.4622374455,
            "estimated_diameter_max": 74.8238376074
        },
        "miles": {
            "estimated_diameter_min": 0.0207924639,
            "estimated_diameter_max": 0.0464933628
        },
        "feet": {
            "estimated_diameter_min": 109.7842471007,
            "estimated_diameter_max": 245.4850393757
        }
    },
    "is_potentially_hazardous_asteroid": false,
    "close_approach_data": [
        {
            "close_approach_date": "1935-07-14",
            "close_approach_date_full": "1935-Jul-14 10:09",
            "epoch_date_close_approach": -1087739460000,
            "relative_velocity": {
                "kilometers_per_second": "7.3200340059",
                "kilometers_per_hour": "26352.1224212297",
                "miles_per_hour": "16374.1840677913"
            },
            "miss_distance": {
                "astronomical": "1.6829995479",
                "lunar": "654.6868241331",
                "kilometers": "251773147.576802973",
                "miles": "156444579.4726801074"
            },
            "orbiting_body": "Juptr"
        },
        {
            "close_approach_date": "2007-11-13",
            "close_approach_date_full": "2007-Nov-13 09:48",
            "epoch_date_close_approach": 1194947280000,
            "relative_velocity": {
                "kilometers_per_second": "8.1867520008",
                "kilometers_per_hour": "29472.307202762",
                "miles_per_hour": "18312.9455505162"
            },
            "miss_distance": {
                "astronomical": "0.0198260969",
                "lunar": "7.7123516941",
                "kilometers": "2965941.866653603",
                "miles": "1842950.8171736014"
            },
            "orbiting_body": "Earth"
        },
        {
            "close_approach_date": "2066-04-25",
            "close_approach_date_full": "2066-Apr-25 06:12",
            "epoch_date_close_approach": 3039401520000,
            "relative_velocity": {
                "kilometers_per_second": "7.8825968446",
                "kilometers_per_hour": "28377.3486406738",
                "miles_per_hour": "17632.5808817564"
            },
            "miss_distance": {
                "astronomical": "1.7046948157",
                "lunar": "663.1262833073",
                "kilometers": "255018713.428762559",
                "miles": "158461280.5774149542"
            },
            "orbiting_body": "Juptr"
        }
    ],
    "orbital_data": {
        "orbit_id": "11",
        "orbit_determination_date": "2017-04-06 09:05:14",
        "first_observation_date": "2007-11-09",
        "last_observation_date": "2007-12-14",
        "data_arc_in_days": 35,
        "observations_used": 61,
        "orbit_uncertainty": "7",
        "minimum_orbit_intersection": ".033188",
        "jupiter_tisserand_invariant": "2.986",
        "epoch_osculation": "2459000.5",
        "eccentricity": ".6371576905302454",
        "semi_major_axis": "2.806384152663059",
        "inclination": "1.659818215439233",
        "ascending_node_longitude": "83.70419540928809",
        "orbital_period": "1717.192985554135",
        "perihelion_distance": "1.018274907211585",
        "perihelion_argument": "333.9363750257018",
        "aphelion_distance": "4.594493398114533",
        "perihelion_time": "2459542.113275860347",
        "mean_anomaly": "246.4537760461413",
        "mean_motion": ".2096444622290539",
        "equinox": "J2000",
        "orbit_class": {
            "orbit_class_type": "AMO",
            "orbit_class_description": "Near-Earth asteroid orbits similar to that of 1221 Amor",
            "orbit_class_range": "1.017 AU < q (perihelion) < 1.3 AU"
        }
    },
    "is_sentry_object": false
}